SENTINEL-6A             
1 46984U 20086A   26189.47828980 -.00000065  00000+0 -18875-4 0  9994
2 46984  66.0415  90.8320 0007815 270.0000  90.0119 12.80930103263050
SENTINEL-6B             
1 66514U 25264A   26189.47863771 -.00000065  00000+0 -18338-4 0  9999
2 66514  66.0415  90.9573 0007883 268.8393  91.1719 12.80930110 29895
