{"fetched_at":"2026-07-08T18:00:37.185Z","source":"https://celestrak.org/NORAD/elements/gp.php?NAME=SENTINEL&FORMAT=JSON","constellation":"sentinel-6","records":[{"OBJECT_NAME":"SENTINEL-6A","OBJECT_ID":"2020-086A","EPOCH":"2026-07-08T11:28:44.238720","CLASSIFICATION_TYPE":"U","MEAN_MOTION":12.80930103,"ECCENTRICITY":0.0007815,"INCLINATION":66.0415,"RA_OF_ASC_NODE":90.832,"ARG_OF_PERICENTER":270,"MEAN_ANOMALY":90.0119,"EPHEMERIS_TYPE":0,"NORAD_CAT_ID":46984,"ELEMENT_SET_NO":999,"REV_AT_EPOCH":26305,"BSTAR":-0.000018875,"MEAN_MOTION_DOT":-6.5e-7,"MEAN_MOTION_DDOT":0},{"OBJECT_NAME":"SENTINEL-6B","OBJECT_ID":"2025-264A","EPOCH":"2026-07-08T11:29:14.298144","CLASSIFICATION_TYPE":"U","MEAN_MOTION":12.8093011,"ECCENTRICITY":0.0007883,"INCLINATION":66.0415,"RA_OF_ASC_NODE":90.9573,"ARG_OF_PERICENTER":268.8393,"MEAN_ANOMALY":91.1719,"EPHEMERIS_TYPE":0,"NORAD_CAT_ID":66514,"ELEMENT_SET_NO":999,"REV_AT_EPOCH":2989,"BSTAR":-0.000018338,"MEAN_MOTION_DOT":-6.5e-7,"MEAN_MOTION_DDOT":0}]}
